141P-H/Machholz,e,14.0165,241.8473,153.6254,3.045726,0.1854248,0.73458733,2.2655,04/14.0/2026,2000,g 18.5,4.0
# From MPEC 2022-SU8
141P-I/Machholz,e,13.9428,153.4495,241.9486,3.047097,0.1852996,0.73506116,0.0693,04/14.0/2026,2000,g 17.5,4.0
# From MPC191605
142P/Ge-Wang,e,12.2429,175.9631,174.0224,5.003468,0.0880638,0.49569372,158.5120,04/14.0/2026,2000,g  8.5,6.0
# From MPEC 2026-FR0
143P/Kowal-Mrkos,e,5.3944,242.0277,304.8625,4.751170,0.0951707,0.37764444,335.4291,04/14.0/2026,2000,g 13.5,2.0
# From MPC191605
144P/Kushida,e,3.9306,242.9227,216.3914,3.835133,0.1312301,0.63488404,106.1827,04/14.0/2026,2000,g  8.5,8.0
# From MPEC 2026-FR0
145P/Shoemaker-Levy,e,11.2781,26.7661,10.4261,4.129606,0.1174468,0.54239597,8.4624,04/14.0/2026,2000,g 13.5,4.0
# From MPC191606
146P/Shoemaker-LINEAR,e,23.1178,53.3131,317.0106,4.021232,0.1222265,0.64762595,75.3724,04/14.0/2026,2000,g 15.0,4.0
# From MPC191606
147P/Kushida-Muramatsu,e,2.3112,91.6668,348.6578,4.009710,0.1227537,0.21149537,105.4475,04/14.0/2026,2000,g 14.0,4.0
# From MPC191606
148P/Anderson-LINEAR,e,3.6585,89.1939,8.1035,3.620288,0.1430835,0.55035279,200.2200,04/14.0/2026,2000,g 16.0,2.0
# From MPC191606
149P/Mueller,e,34.2636,143.6985,30.0315,4.135705,0.1171871,0.32460296,331.2322,04/14.0/2026,2000,g  8.0,8.0
# From MPC191606
150P/LONEOS,e,18.5468,272.0528,246.1310,3.872356,0.1293425,0.54940241,98.5979,04/14.0/2026,2000,g 13.5,4.0
# From MPC191606
151P/Helin,e,4.7217,143.0519,216.1863,5.768767,0.0711344,0.57211103,273.0443,04/14.0/2026,2000,g 10.0,6.0
# From MPC191606
152P/Helin-Lawrence,e,9.8795,91.7768,164.3724,4.486339,0.1037208,0.30641366,161.1099,04/14.0/2026,2000,g 11.5,4.0
# From MPC191606
154P/Brewington,e,17.6407,342.9950,47.9023,4.792331,0.0939472,0.67610699,62.9386,04/14.0/2026,2000,g  2.5,12.0
# From MPC191607
156P/Russell-LINEAR,e,17.2556,35.3211,0.5337,3.462645,0.1529650,0.61467462,301.6248,04/14.0/2026,2000,g 15.5,2.0
# From MPC191607
157P/Tritton,e,12.4252,287.4955,155.2012,3.548467,0.1474494,0.55663452,193.4048,04/14.0/2026,2000,g 10.0,4.0
# From MPEC 2022-VC5
157P-B/Tritton,e,12.4274,153.8623,287.2449,3.102746,0.1803370,0.49978961,236.8379,04/14.0/2026,2000,g 15.7,4.0
# From MPC191607
158P/Kowal-LINEAR,e,7.5033,124.1427,234.9516,5.743823,0.0715983,0.11369778,90.6504,04/14.0/2026,2000,g  9.0,4.0
# From MPC191607
159P/LONEOS,e,23.4739,54.9347,4.7626,5.856687,0.0695386,0.38214409,200.2582,04/14.0/2026,2000,g 10.0,4.0
# From MPC191607
160P/LINEAR,e,15.5888,333.3116,12.7801,3.780878,0.1340649,0.52486446,311.9742,04/14.0/2026,2000,g 15.5,2.0
# From MPC191607
161P/Hartley-IRAS,e,95.7899,1.4767,47.0724,7.721127,0.0459392,0.83614975,349.5482,04/14.0/2026,2000,g  8.5,6.0
# From MPC191607
162P/SidingSpring,e,27.5523,30.8674,357.2518,3.091124,0.1813549,0.58283241,353.8619,04/14.0/2026,2000,g 12.0,4.0
# From MPC191607
163P/NEAT,e,12.7243,102.0670,349.6871,3.759458,0.1352123,0.45344727,329.7098,04/14.0/2026,2000,g 14.5,4.0
# From MPEC 2026-G41
164P/Christensen,e,16.2756,88.2620,325.8997,3.650796,0.1412937,0.54137898,45.4507,04/14.0/2026,2000,g 11.0,4.0
# From MPC191608
165P/LINEAR,e,15.9155,0.5949,125.9949,17.81771,0.0131047,0.61957677,123.5317,04/14.0/2026,2000,g 11.5,2.0
# From MPC191608
166P/NEAT,e,15.3831,64.3475,321.9913,13.85448,0.0191125,0.38166385,166.6847,04/14.0/2026,2000,g  5.5,4.0
# From MPC191608
167P/CINEOS,e,19.0720,295.8454,344.2285,16.24006,0.0150599,0.26803920,137.9490,04/14.0/2026,2000,g  9.5,2.0
# From MPC191608
168P/Hergenrother,e,21.5952,355.3778,15.1010,3.585517,0.1451698,0.62101776,353.8587,04/14.0/2026,2000,g 15.5,4.0
# From MPC191608
169P/NEAT,e,11.2848,176.0367,218.1360,2.603674,0.2345980,0.76791204,322.3738,04/14.0/2026,2000,g 16.0,2.0
# From MPC191608
170P/Christensen,e,10.1370,142.6377,224.5013,4.189209,0.1149492,0.30565791,125.8854,04/14.0/2026,2000,g 12.0,4.0
# From MPEC 2026-E44
171P/Spahr,e,21.9547,101.6924,347.0438,3.552189,0.1472177,0.50278174,29.5955,04/14.0/2026,2000,g 13.5,4.0
# From MPC191608
172P/Yeung,e,11.2212,30.8764,208.8655,4.225273,0.1134807,0.20522356,18.4606,04/14.0/2026,2000,g 13.0,4.0
# From MPC191608
173P/Mueller,e,16.4935,100.3456,29.3824,5.717740,0.0720887,0.26245299,113.6972,04/14.0/2026,2000,g  7.5,4.0
# From MPEC 2026-FC3
175P/Hergenrother,e,4.9296,109.7952,74.5918,3.689026,0.1391030,0.37459382,340.2216,04/14.0/2026,2000,g 14.0,4.0
# From MPC191609
178P/Hug-Bell,e,11.0927,102.7839,297.9658,3.632571,0.1423584,0.48208536,298.2789,04/14.0/2026,2000,g 13.5,4.0
# From MPEC 2026-E43
179P/Jedicke,e,19.8890,115.5040,297.2591,5.938191,0.0681119,0.30499879,96.2795,04/14.0/2026,2000,g  2.5,8.0
# From MPC191609
180P/NEAT,e,16.8603,84.5496,94.5985,3.867156,0.1296034,0.35413181,130.4544,04/14.0/2026,2000,g 11.0,4.0
# From MPC191609
181P/Shoemaker-Levy,e,17.4680,35.4297,336.2987,3.880019,0.1289595,0.69942036,200.8375,04/14.0/2026,2000,g 11.5,4.0
# From MPC191609
182P/LONEOS,e,16.2295,72.4358,54.2462,2.948048,0.1947162,0.66409120,278.7323,04/14.0/2026,2000,g 18.0,4.0
# From MPEC 2026-FC3
183P/Korlevic-Juric,e,18.7237,3.2295,161.4450,4.722793,0.0960297,0.10367422,311.2836,04/14.0/2026,2000,g 12.5,2.0
# From MPC191609
184P/Lovas,e,4.5683,173.2213,186.5787,3.802023,0.1329481,0.54947234,265.6050,04/14.0/2026,2000,g 13.5,4.0
# From MPC191609
185P/Petriew,e,14.0030,214.1246,181.9245,3.100296,0.1805508,0.69910881,181.7113,04/14.0/2026,2000,g 15.0,4.0
# From MPC191609
186P/Garradd,e,28.7542,325.6581,267.2698,4.870774,0.0916869,0.12244785,248.2745,04/14.0/2026,2000,g  7.5,4.0
# From MPC191610
187P/LINEAR,e,13.6692,109.8478,132.2172,4.543437,0.1017718,0.15673748,292.4059,04/14.0/2026,2000,g  9.0,4.0
# From MPEC 2026-E43
188P/LINEAR-Mueller,e,10.5262,358.9110,26.8552,4.362772,0.1081584,0.41641134,0.0706,04/14.0/2026,2000,g 11.5,4.0
# From MPEC 2026-E44
190P/Mueller,e,2.1787,335.4004,50.4373,4.226968,0.1134124,0.52337882,53.9768,04/14.0/2026,2000,g 13.0,4.0
# From MPC191610
191P/McNaught,e,8.8394,98.1788,284.2482,3.641749,0.1418205,0.38478865,262.5759,04/14.0/2026,2000,g 13.0,4.0
# From MPC191610
192P/Shoemaker-Levy,e,24.5758,51.5016,313.0191,6.440094,0.0603067,0.77320292,41.5914,04/14.0/2026,2000,g 15.0,4.0
# From MPC191610
193P/LINEAR-NEAT,e,10.6771,335.1800,8.0804,3.580550,0.1454720,0.39240139,246.6209,04/14.0/2026,2000,g 14.0,4.0
# From MPC191610
194P/LINEAR,e,11.8032,349.4871,128.6751,4.124329,0.1176723,0.56339363,94.0880,04/14.0/2026,2000,g 16.0,4.0
# From MPEC 2026-G41
195P/Hill,e,36.4151,243.0855,250.6860,6.439108,0.0603206,0.31033449,15.1272,04/14.0/2026,2000,g  8.5,4.0
# From MPC191610
196P/Tichy,e,19.2878,24.1251,12.1503,3.807395,0.1326668,0.42711988,167.5951,04/14.0/2026,2000,g 13.5,4.0
# From MPC191611
197P/LINEAR,e,25.1474,66.0642,190.0110,2.912609,0.1982809,0.61674949,243.5492,04/14.0/2026,2000,g 16.5,2.0
# From MPC191611
198P/ODAS,e,1.3393,358.3179,69.2982,3.633359,0.1423120,0.44821047,20.4707,04/14.0/2026,2000,g 12.5,4.0
# From MPC191611
199P/Shoemaker,e,24.9406,92.3401,191.7212,5.869589,0.0693095,0.50411568,67.9968,04/14.0/2026,2000,g 10.0,4.0
# From MPC191611
200P/Larsen,e,12.0950,234.7344,134.4280,4.955587,0.0893432,0.33059573,219.1873,04/14.0/2026,2000,g  9.0,4.0
# From MPC191611
201P/LONEOS,e,5.7331,19.6675,41.6670,3.354364,0.1604312,0.63736835,285.8270,04/14.0/2026,2000,g 14.0,4.0
# From MPC191611
202P/Scotti,e,2.1416,177.2993,274.5494,4.099758,0.1187317,0.25090215,82.7067,04/14.0/2026,2000,g 13.5,4.0
# From MPC191611
203P/Korlevic,e,2.9762,290.2201,154.9852,4.668399,0.0977130,0.31628995,217.6608,04/14.0/2026,2000,g 14.5,2.0
# From MPC191611
204P/LINEAR-NEAT,e,6.5983,108.4721,356.7553,3.584453,0.1452345,0.48827871,180.5831,04/14.0/2026,2000,g 14.0,4.0
# From MPC191611
205P/Giacobini,e,15.3003,179.6241,154.1263,3.543475,0.1477611,0.56719876,229.5005,04/14.0/2026,2000,g 13.0,4.0
# From MPC191612
207P/NEAT,e,10.1963,198.1027,273.0799,3.887299,0.1285974,0.75852270,103.2675,04/14.0/2026,2000,g 16.0,4.0
# From MPC191612
208P/McMillan,e,4.3995,36.1204,311.4753,4.057060,0.1206110,0.37486645,71.8942,04/14.0/2026,2000,g 12.5,4.0
# From MPC191612
209P/LINEAR,e,21.2875,62.7485,152.4744,2.957048,0.1938280,0.67421048,123.7515,04/14.0/2026,2000,g 17.0,2.0
# From MPEC 2026-G41
210P/Christensen,e,10.2873,93.7965,345.9487,3.160092,0.1754504,0.83404488,24.9623,04/14.0/2026,2000,g 13.5,4.0
# From MPC191612
211P/Hill,e,18.9265,117.1001,4.3835,3.548702,0.1474347,0.34460480,189.6446,04/14.0/2026,2000,g 12.5,4.0
# From MPC191612
212P/NEAT,e,22.1486,97.9719,14.0934,3.904577,0.1277447,0.58673754,91.8209,04/14.0/2026,2000,g 17.0,2.0
# From MPC191612
213P/VanNess,e,10.7227,310.2615,7.9640,3.363301,0.1597922,0.41600969,139.2182,04/14.0/2026,2000,g 10.5,4.0
# From MPEC 2025-GB9
213P-B/Van Ness,e,10.7216,310.2596,7.9771,3.363050,0.1598100,0.41590968,139.2537,04/14.0/2026,2000,g 17.0,4.0
# From MPC191612
214P/LINEAR,e,15.1959,348.2255,190.1133,3.615555,0.1433645,0.48665050,185.6578,04/14.0/2026,2000,g 13.0,4.0
# From MPEC 2026-G41
215P/NEAT,e,10.5755,56.6834,262.1063,4.337397,0.1091089,0.16483651,255.8630,04/14.0/2026,2000,g 11.0,4.0
# From MPC191612
216P/LINEAR,e,9.0626,359.7602,151.8063,3.860835,0.1299218,0.44917565,107.5495,04/14.0/2026,2000,g 13.0,4.0
# From MPEC 2026-G41
217P/LINEAR,e,12.8710,125.3690,247.0064,3.946792,0.1257007,0.68958268,40.7227,04/14.0/2026,2000,g 12.0,4.0
# From MPEC 2026-G41
218P/LINEAR,e,2.7265,174.7222,61.4022,3.059092,0.1842109,0.63084479,7.4971,04/14.0/2026,2000,g 16.0,4.0
# From MPC191613
219P/LINEAR,e,11.4049,229.9691,109.0236,3.660697,0.1407208,0.35905385,110.5563,04/14.0/2026,2000,g 11.0,4.0
# From MPC191613
220P/McNaught,e,8.1207,150.0839,180.5664,3.120830,0.1787718,0.50035825,349.0723,04/14.0/2026,2000,g 15.0,4.0
# From MPC191613
221P/LINEAR,e,10.3009,221.4951,47.0560,3.380968,0.1585413,0.52246195,245.8535,04/14.0/2026,2000,g 14.5,4.0
# From MPC191613
223P/Skiff,e,27.0070,346.6871,37.9900,4.158232,0.1162361,0.41605262,305.7305,04/14.0/2026,2000,g 12.0,4.0
# From MPC191613
224P/LINEAR-NEAT,e,13.2969,40.0357,16.8384,3.448034,0.1539383,0.40523291,198.8925,04/14.0/2026,2000,g 15.5,4.0
# From MPC191613
